STARLINK-3141           
1 49459C 21104BD  22343.20256944 -.00004208  00000-0 -26396-3 0  3433
2 49459  53.2149 145.4791 0003694  49.0663 172.6990 15.08830019    18
STARLINK-3140           
1 49460C 21104BE  22343.19840278  .00005361  00000-0  33618-3 0  3436
2 49460  53.2146 145.5005 0002588  50.4931 168.6398 15.08832231    16
STARLINK-3219           
1 49724C 21115A   22343.18173611  .00010748  00000-0  67416-3 0  3438
2 49724  53.2178  75.5664 0002345  34.8142 193.5679 15.08816213    19
STARLINK-3218           
1 49725C 21115B   22343.18034722 -.00022901  00000-0 -14379-2 0  3433
2 49725  53.2172  75.5843 0002091  27.7260  13.1657 15.08813602    15
STARLINK-3237           
1 49726C 21115C   22343.17895833 -.00005712  00000-0 -35848-3 0  3437
2 49726  53.2159  85.5861 0002028  33.9301 209.5988 15.08810737    11
STARLINK-3242           
1 49727C 21115D   22343.18104167 -.00015339  00000-0 -96290-3 0  3436
2 49727  53.2161  85.5749 0002189  34.4201 200.4301 15.08814064    19
STARLINK-3240           
1 49728C 21115E   22343.18104167  .00002540  00000-0  15937-3 0  3434
2 49728  53.2159  85.5635 0002394  32.9015 181.7932 15.08815858    18
STARLINK-3251           
1 49729C 21115F   22343.17618056  .00001144  00000-0  71803-4 0  3435
2 49729  53.2154  85.5971 0002013  37.3746 131.0579 15.08804309    19
STARLINK-3249           
1 49730C 21115G   22343.18104167 -.00012051  00000-0 -75636-3 0  3439
2 49730  53.2178  85.5568 0002208  36.0296 118.8036 15.08816835    19
STARLINK-3228           
1 49731C 21115H   22343.17548611  .00018406  00000-0  11544-2 0  3430
2 49731  53.2171  85.5857 0002305  32.8335 111.7482 15.08811847    15
STARLINK-3246           
1 49732C 21115J   22343.17340278  .00010642  00000-0  66737-3 0  3439
2 49732  53.2173  85.5984 0002069  32.3833  20.8479 15.08824334    15
STARLINK-3252           
1 49733C 21115K   22343.17895833 -.00015486  00000-0 -97215-3 0  3430
2 49733  53.2166  85.5729 0002194  34.9871  88.5493 15.08813594    17
STARLINK-3238           
1 49734C 21115L   22343.17965278 -.00017266  00000-0 -10838-2 0  3435
2 49734  53.2176  75.5877 0002061  32.5356 349.7420 15.08817916    11
STARLINK-3113           
1 49735C 21115M   22343.19909722 -.00002123  00000-0 -13327-3 0  3433
2 49735  53.2171  85.4828 0001919  36.5626 176.4078 15.08802344    11
STARLINK-3148           
1 49736C 21115N   22343.19701389 -.00012312  00000-0 -77301-3 0  3436
2 49736  53.2152  75.5022 0002114  27.9311  48.7320 15.08803654    16
STARLINK-3225           
1 49737C 21115P   22343.17965278 -.00016745  00000-0 -10512-2 0  3438
2 49737  53.2163  75.5779 0002043  34.2721 328.0148 15.08816062    14
STARLINK-3143           
1 49738C 21115Q   22343.20048611  .00024449  00000-0  15334-2 0  3431
2 49738  53.2155  75.4784 0002315  26.5857  48.8627 15.08804981    13
STARLINK-3155           
1 49739C 21115R   22343.19909722 -.00006612  00000-0 -41497-3 0  3433
2 49739  53.2187  85.4926 0002278  27.9124 145.0614 15.08810490    16
STARLINK-3226           
1 49740C 21115S   22343.17618056 -.00006701  00000-0 -42051-3 0  3436
2 49740  53.2164  75.5847 0002302  27.3199 216.1047 15.08814123    16
STARLINK-3244           
1 49741C 21115T   22343.16784722 -.00005878  00000-0 -36893-3 0  3431
2 49741  53.2175  75.6173 0002275  27.8960 210.2418 15.08812636    16
STARLINK-3202           
1 49742C 21115U   22343.18104167 -.00000448  00000-0 -28109-4 0  3433
2 49742  53.2168  75.5664 0002201  26.4195 203.3379 15.08835056    17
STARLINK-3239           
1 49743C 21115V   22343.18104167 -.00013249  00000-0 -83175-3 0  3430
2 49743  53.2164  75.5667 0002257  34.7792 255.0902 15.08809512    17
STARLINK-3231           
1 49744C 21115W   22343.18243056 -.00021971  00000-0 -13792-2 0  3430
2 49744  53.2173  75.5550 0002396  27.9557 169.4371 15.08818986    19
STARLINK-3241           
1 49745C 21115X   22343.18034722 -.00026530  00000-0 -16654-2 0  3435
2 49745  53.2169  75.5778 0002252  29.2274 216.8218 15.08823576    17
STARLINK-3233           
1 49746C 21115Y   22343.18104167  .00022758  00000-0  14277-2 0  3432
2 49746  53.2180  75.5549 0002424  29.6287 120.1640 15.08798120    18
STARLINK-3247           
1 49747C 21115Z   22343.17409722 -.00012755  00000-0 -80054-3 0  3432
2 49747  53.2183  75.5967 0002420  28.4088 143.6834 15.08816174    13
STARLINK-3248           
1 49748C 21115AA  22343.17270833 -.00022762  00000-0 -14291-2 0  3430
2 49748  53.2169  75.6170 0002371  26.0938  38.4795 15.08815193    15
STARLINK-3250           
1 49749C 21115AB  22343.18173611  .00001967  00000-0  12337-3 0  3430
2 49749  53.2174  75.5610 0002474  28.1033 145.4449 15.08836190    18
STARLINK-3236           
1 49750C 21115AC  22343.18173611 -.00017909  00000-0 -11241-2 0  3439
2 49750  53.2163  75.5665 0002200  30.9558  42.6501 15.08819065    17
STARLINK-3229           
1 49751C 21115AD  22343.17965278 -.00000761  00000-0 -47753-4 0  3434
2 49751  53.2165  75.5785 0002445  28.2546  93.9190 15.08810069    19
STARLINK-3209           
1 49752C 21115AE  22343.15673611 -.00018202  00000-0 -11425-2 0  3434
2 49752  53.2176  65.6889 0002355  34.8629 177.8879 15.08820212    19
STARLINK-3200           
1 49753C 21115AF  22343.17340278 -.00029298  00000-0 -18394-2 0  3436
2 49753  53.2165  75.6150 0001999  32.5123  15.8248 15.08822554    19
STARLINK-3193           
1 49754C 21115AG  22343.17826389  .00010434  00000-0  65420-3 0  3432
2 49754  53.2173  65.5751 0002929  33.8126 330.6617 15.08828996    19
STARLINK-3210           
1 49755C 21115AH  22343.16506944  .00018439  00000-0  11568-2 0  3430
2 49755  53.2152  75.6428 0000997  65.7006 257.1930 15.08803753    19
STARLINK-3207           
1 49756C 21115AJ  22343.18173611 -.00001538  00000-0 -96562-4 0  3437
2 49756  53.2171  65.5553 0002302  38.8289 249.7881 15.08802381    12
STARLINK-3197           
1 49757C 21115AK  22343.16645833 -.00013604  00000-0 -85402-3 0  3433
2 49757  53.2170  65.6258 0002338  31.1825 214.4195 15.08810823    13
STARLINK-3194           
1 49758C 21115AL  22343.18243056 -.00008809  00000-0 -55292-3 0  3432
2 49758  53.2177  65.5690 0002548  26.2142 226.1635 15.08812370    18
STARLINK-3204           
1 49759C 21115AM  22343.17895833  .00024747  00000-0  15521-2 0  3435
2 49759  53.2156  65.5831 0001909  38.4333 254.9716 15.08806363    14
STARLINK-3199           
1 49760C 21115AN  22343.17548611 -.00026636  00000-0 -16724-2 0  3433
2 49760  53.2164  65.6010 0002118  27.1812 147.4847 15.08817562    19
STARLINK-3203           
1 49761C 21115AP  22343.17895833 -.00026808  00000-0 -16828-2 0  3431
2 49761  53.2170  65.5810 0002271  28.7126 224.8167 15.08826208    11
STARLINK-3195           
1 49762C 21115AQ  22343.17895833 -.00008224  00000-0 -51617-3 0  3430
2 49762  53.2169  65.5904 0002278  32.0404 121.4848 15.08813424    12
STARLINK-3198           
1 49763C 21115AR  22343.18243056 -.00021938  00000-0 -13773-2 0  3433
2 49763  53.2169  65.5704 0003018  18.4843 213.9078 15.08814129    14
STARLINK-3206           
1 49764C 21115AS  22343.18173611 -.00017870  00000-0 -11216-2 0  3433
2 49764  53.2156  65.5685 0002401  28.2097 100.4267 15.08819210    10
STARLINK-3227           
1 49765C 21115AT  22343.18034722 -.00006060  00000-0 -38035-3 0  3431
2 49765  53.2157  65.5730 0002227  34.2293 146.8429 15.08812179    15
STARLINK-3190           
1 49766C 21115AU  22343.17618056 -.00018908  00000-0 -11868-2 0  3437
2 49766  53.2163  65.5951 0002173  30.8672  47.5375 15.08820032    15
STARLINK-3192           
1 49767C 21115AV  22343.17687500 -.00008571  00000-0 -53808-3 0  3434
2 49767  53.2158  65.5934 0002206  37.8866  84.3133 15.08805505    19
STARLINK-3196           
1 49768C 21115AW  22343.17965278 -.00009578  00000-0 -60105-3 0  3432
2 49768  53.2168  65.5795 0002110  37.4131  19.8635 15.08819417    18
STARLINK-3208           
1 49769C 21115AX  22343.18034722 -.00026746  00000-0 -16782-2 0  3432
2 49769  53.2167  65.5780 0001764  35.7776  45.3328 15.08841515    19
STARLINK-3191           
1 49770C 21115AY  22343.17270833 -.00023418  00000-0 -14703-2 0  3432
2 49770  53.2168  65.6102 0002284  27.4097 332.1635 15.08815063    10
STARLINK-3201           
1 49771C 21115AZ  22343.18243056  .00002792  00000-0  17516-3 0  3437
2 49771  53.2170  65.5566 0002289  32.9108 359.3982 15.08815849    14
STARLINK-3317           
1 50156C 21125A   22343.15395833  .00007338  00000-0  46003-3 0  3439
2 50156  53.2136 175.7021 0002254  42.7540 104.5146 15.08841749    16
STARLINK-3313           
1 50157C 21125B   22343.17756944 -.00010707  00000-0 -67172-3 0  3432
2 50157  53.2144 185.5834 0002684  40.6891 105.1983 15.08828638    18
STARLINK-3309           
1 50158C 21125C   22343.18173611 -.00011353  00000-0 -71227-3 0  3432
2 50158  53.2144 185.5773 0002616  42.2496 186.2887 15.08830123    10
STARLINK-3297           
1 50159C 21125D   22343.16298611 -.00002427  00000-0 -15218-3 0  3439
2 50159  53.2138 185.6433 0002886  41.6291 104.9298 15.08838353    19
STARLINK-3288           
1 50160C 21125E   22343.18104167 -.00008431  00000-0 -52878-3 0  3439
2 50160  53.2130 185.5695 0003218  41.6000 163.1020 15.08836322    14
STARLINK-3304           
1 50161C 21125F   22343.18104167 -.00010869  00000-0 -68194-3 0  3436
2 50161  53.2144 185.5668 0003435  40.7812 143.9773 15.08826759    16
STARLINK-3303           
1 50162C 21125G   22343.17965278  .00026253  00000-0  45294-3 0  3432
2 50162  53.2169  41.6037 0003094  47.6888 249.6207 15.50389621    11
STARLINK-3306           
1 50163C 21125H   22343.18173611  .00005128  00000-0  32149-3 0  3439
2 50163  53.2153 165.5622 0002833  44.3183 228.9578 15.08838179    14
STARLINK-3298           
1 50165C 21125K   22343.18104167 -.00008927  00000-0 -56005-3 0  3430
2 50165  53.2150 185.5807 0002681  40.2530 224.4963 15.08826550    11
